{"type": "FeatureCollection", "features": [ {"type": "Feature", "properties": {"norad_id": 31535, "name": "FENGYUN 1C DEB", "group": "fengyun-1c-debris", "lat": 34.640553531138046, "lon": 35.151515475371035, "alt_km": 736.6871538475043, "timestamp": "2025-12-26T17:24:55.002381+00:00", "meta": {"OBJECT_NAME": "FENGYUN 1C DEB", "OBJECT_ID": "1999-025BYA", "EPOCH": "2025-12-24T07:35:01.239648", "MEAN_MOTION": 14.28365106, "ECCENTRICITY": 0.00883022, "INCLINATION": 98.0343, "RA_OF_ASC_NODE": 207.3324, "ARG_OF_PERICENTER": 128.5209, "MEAN_ANOMALY": 232.3933, "EPHEMERIS_TYPE": 0, "CLASSIFICATION_TYPE": "U", "NORAD_CAT_ID": 31535, "ELEMENT_SET_NO": 999, "REV_AT_EPOCH": 72096, "BSTAR": 0.00063622551, "MEAN_MOTION_DOT": 1.62e-05, "MEAN_MOTION_DDOT": 0}, "tle": {"line1": "1 31535U 99025BYA 25358.31598657  .00001620  00000+0  63623-3 0  9990", "line2": "2 31535  98.0343 207.3324 0088302 128.5209 232.3933 14.28365106720960"}}, "geometry": {"type": "Point", "coordinates": [35.151515475371035, 34.640553531138046]}}, {"type": "Feature", "properties": {"norad_id": 31536, "name": "FENGYUN 1C DEB", "group": "fengyun-1c-debris", "lat": -44.426553446869676, "lon": 79.74610924791389, "alt_km": 828.13001372278, "timestamp": "2025-12-26T17:24:55.002392+00:00", "meta": {"OBJECT_NAME": "FENGYUN 1C DEB", "OBJECT_ID": "1999-025BYB", "EPOCH": "2025-12-25T23:54:07.431840", "MEAN_MOTION": 14.54482331, "ECCENTRICITY": 0.02946152, "INCLINATION": 98.2355, "RA_OF_ASC_NODE": 267.1878, "ARG_OF_PERICENTER": 103.8485, "MEAN_ANOMALY": 259.5673, "EPHEMERIS_TYPE": 0, "CLASSIFICATION_TYPE": "U", "NORAD_CAT_ID": 31536, "ELEMENT_SET_NO": 999, "REV_AT_EPOCH": 96450, "BSTAR": 0.0008547638, "MEAN_MOTION_DOT": 6.483e-05, "MEAN_MOTION_DDOT": 0}, "tle": {"line1": "1 31536U 99025BYB 25359.99591935  .00006483  00000+0  85476-3 0  9990", "line2": "2 31536  98.2355 267.1878 0294615 103.8485 259.5673 14.54482331964503"}}, "geometry": {"type": "Point", "coordinates": [79.74610924791389, -44.426553446869676]}}, {"type": "Feature", "properties": {"norad_id": 31537, "name": "FENGYUN 1C DEB", "group": "fengyun-1c-debris", "lat": -31.476778477017323, "lon": 160.37536864069492, "alt_km": 643.3040020019916, "timestamp": "2025-12-26T17:24:55.002402+00:00", "meta": {"OBJECT_NAME": "FENGYUN 1C DEB", "OBJECT_ID": "1999-025BYC", "EPOCH": "2025-12-22T15:30:50.364864", "MEAN_MOTION": 14.20468164, "ECCENTRICITY": 0.03487105, "INCLINATION": 99.2934, "RA_OF_ASC_NODE": 150.3269, "ARG_OF_PERICENTER": 296.2481, "MEAN_ANOMALY": 60.3246, "EPHEMERIS_TYPE": 0, "CLASSIFICATION_TYPE": "U", "NORAD_CAT_ID": 31537, "ELEMENT_SET_NO": 999, "REV_AT_EPOCH": 93422, "BSTAR": 0.0026080635, "MEAN_MOTION_DOT": 0.00010318, "MEAN_MOTION_DDOT": 0}, "tle": {"line1": "1 31537U 99025BYC 25356.64641626  .00010318  00000+0  26081-2 0  9991", "line2": "2 31537  99.2934 150.3269 0348710 296.2481  60.3246 14.20468164934225"}}, "geometry": {"type": "Point", "coordinates": [160.37536864069492, -31.476778477017323]}}, {"type": "Feature", "properties": {"norad_id": 31540, "name": "FENGYUN 1C DEB", "group": "fengyun-1c-debris", "lat": 57.15512882395862, "lon": 147.27600560772837, "alt_km": 786.6892088967315, "timestamp": "2025-12-26T17:24:55.002412+00:00", "meta": {"OBJECT_NAME": "FENGYUN 1C DEB", "OBJECT_ID": "1999-025BYF", "EPOCH": "2025-12-23T05:34:33.525408", "MEAN_MOTION": 14.6550063, "ECCENTRICITY": 0.01764738, "INCLINATION": 99.0576, "RA_OF_ASC_NODE": 157.7332, "ARG_OF_PERICENTER": 268.7753, "MEAN_ANOMALY": 89.3225, "EPHEMERIS_TYPE": 0, "CLASSIFICATION_TYPE": "U", "NORAD_CAT_ID": 31540, "ELEMENT_SET_NO": 999, "REV_AT_EPOCH": 98455, "BSTAR": 0.0010217432, "MEAN_MOTION_DOT": 6.907e-05, "MEAN_MOTION_DDOT": 0}, "tle": {"line1": "1 31540U 99025BYF 25357.23233247  .00006907  00000+0  10217-2 0  9990", "line2": "2 31540  99.0576 157.7332 0176473 268.7753  89.3225 14.65500630984555"}}, "geometry": {"type": "Point", "coordinates": [147.27600560772837, 57.15512882395862]}}, {"type": "Feature", "properties": {"norad_id": 31541, "name": "FENGYUN 1C DEB", "group": "fengyun-1c-debris", "lat": 24.878867444863616, "lon": -31.29184979834541, "alt_km": 622.3156767237288, "timestamp": "2025-12-26T17:24:55.002422+00:00", "meta": {"OBJECT_NAME": "FENGYUN 1C DEB", "OBJECT_ID": "1999-025BYG", "EPOCH": "2025-12-25T03:06:41.952672", "MEAN_MOTION": 14.6902553, "ECCENTRICITY": 0.0078402, "INCLINATION": 98.9804, "RA_OF_ASC_NODE": 142.7501, "ARG_OF_PERICENTER": 201.9008, "MEAN_ANOMALY": 157.8837, "EPHEMERIS_TYPE": 0, "CLASSIFICATION_TYPE": "U", "NORAD_CAT_ID": 31541, "ELEMENT_SET_NO": 999, "REV_AT_EPOCH": 98605, "BSTAR": 0.0015835, "MEAN_MOTION_DOT": 9.683e-05, "MEAN_MOTION_DDOT": 0}, "tle": {"line1": "1 31541U 99025BYG 25359.12965223  .00009683  00000+0  15835-2 0  9992", "line2": "2 31541  98.9804 142.7501 0078402 201.9008 157.8837 14.69025530986057"}}, "geometry": {"type": "Point", "coordinates": [-31.29184979834541, 24.878867444863616]}}, {"type": "Feature", "properties": {"norad_id": 31542, "name": "FENGYUN 1C DEB", "group": "fengyun-1c-debris", "lat": -50.42302253638687, "lon": -136.10516419827272, "alt_km": 807.24867867371, "timestamp": "2025-12-26T17:24:55.002432+00:00", "meta": {"OBJECT_NAME": "FENGYUN 1C DEB", "OBJECT_ID": "1999-025BYH", "EPOCH": "2025-12-23T09:00:46.396800", "MEAN_MOTION": 14.22851184, "ECCENTRICITY": 0.00478944, "INCLINATION": 98.7301, "RA_OF_ASC_NODE": 51.288, "ARG_OF_PERICENTER": 176.9296, "MEAN_ANOMALY": 183.2185, "EPHEMERIS_TYPE": 0, "CLASSIFICATION_TYPE": "U", "NORAD_CAT_ID": 31542, "ELEMENT_SET_NO": 999, "REV_AT_EPOCH": 96091, "BSTAR": 0.0012852727, "MEAN_MOTION_DOT": 2.877e-05, "MEAN_MOTION_DDOT": 0}, "tle": {"line1": "1 31542U 99025BYH 25357.37553700  .00002877  00000+0  12853-2 0  9996", "line2": "2 31542  98.7301  51.2880 0047894 176.9296 183.2185 14.22851184960910"}}, "geometry": {"type": "Point", "coordinates": [-136.10516419827272, -50.42302253638687]}}, {"type": "Feature", "properties": {"norad_id": 31544, "name": "FENGYUN 1C DEB", "group": "fengyun-1c-debris", "lat": -72.67780798885902, "lon": -158.06115056653306, "alt_km": 830.8317012616653, "timestamp": "2025-12-26T17:24:55.002442+00:00", "meta": {"OBJECT_NAME": "FENGYUN 1C DEB", "OBJECT_ID": "1999-025BYK", "EPOCH": "2025-12-22T10:20:35.081376", "MEAN_MOTION": 14.14359975, "ECCENTRICITY": 0.00322241, "INCLINATION": 98.8282, "RA_OF_ASC_NODE": 47.5818, "ARG_OF_PERICENTER": 240.9868, "MEAN_ANOMALY": 118.8075, "EPHEMERIS_TYPE": 0, "CLASSIFICATION_TYPE": "U", "NORAD_CAT_ID": 31544, "ELEMENT_SET_NO": 999, "REV_AT_EPOCH": 95894, "BSTAR": 0.0006556952, "MEAN_MOTION_DOT": 1.216e-05, "MEAN_MOTION_DDOT": 0}, "tle": {"line1": "1 31544U 99025BYK 25356.43096159  .00001216  00000+0  65570-3 0  9995", "line2": "2 31544  98.8282  47.5818 0032224 240.9868 118.8075 14.14359975958942"}}, "geometry": {"type": "Point", "coordinates": [-158.06115056653306, -72.67780798885902]}}, {"type": "Feature", "properties": {"norad_id": 31546, "name": "FENGYUN 1C DEB", "group": "fengyun-1c-debris", "lat": -2.0453341517964962, "lon": 69.43945348971775, "alt_km": 866.0933696173724, "timestamp": "2025-12-26T17:24:55.002452+00:00", "meta": {"OBJECT_NAME": "FENGYUN 1C DEB", "OBJECT_ID": "1999-025BYM", "EPOCH": "2025-12-25T15:56:12.109056", "MEAN_MOTION": 14.13210899, "ECCENTRICITY": 0.01455631, "INCLINATION": 98.2426, "RA_OF_ASC_NODE": 68.1644, "ARG_OF_PERICENTER": 99.8764, "MEAN_ANOMALY": 261.8878, "EPHEMERIS_TYPE": 0, "CLASSIFICATION_TYPE": "U", "NORAD_CAT_ID": 31546, "ELEMENT_SET_NO": 999, "REV_AT_EPOCH": 94971, "BSTAR": 0.0014554439, "MEAN_MOTION_DOT": 2.977e-05, "MEAN_MOTION_DDOT": 0}, "tle": {"line1": "1 31546U 99025BYM 25359.66402904  .00002977  00000+0  14554-2 0  9994", "line2": "2 31546  98.2426  68.1644 0145563  99.8764 261.8878 14.13210899949716"}}, "geometry": {"type": "Point", "coordinates": [69.43945348971775, -2.0453341517964962]}}, {"type": "Feature", "properties": {"norad_id": 31547, "name": "FENGYUN 1C DEB", "group": "fengyun-1c-debris", "lat": -79.92384236153647, "lon": 109.16902261313349, "alt_km": 802.8054531721364, "timestamp": "2025-12-26T17:24:55.002463+00:00", "meta": {"OBJECT_NAME": "FENGYUN 1C DEB", "OBJECT_ID": "1999-025BYN", "EPOCH": "2025-12-23T20:38:21.518592", "MEAN_MOTION": 14.23194387, "ECCENTRICITY": 0.0054564, "INCLINATION": 99.0859, "RA_OF_ASC_NODE": 41.9836, "ARG_OF_PERICENTER": 221.2814, "MEAN_ANOMALY": 138.4231, "EPHEMERIS_TYPE": 0, "CLASSIFICATION_TYPE": "U", "NORAD_CAT_ID": 31547, "ELEMENT_SET_NO": 999, "REV_AT_EPOCH": 64175, "BSTAR": 0.0013187, "MEAN_MOTION_DOT": 2.981e-05, "MEAN_MOTION_DDOT": 0}, "tle": {"line1": "1 31547U 99025BYN 25357.85997128  .00002981  00000+0  13187-2 0  9997", "line2": "2 31547  99.0859  41.9836 0054564 221.2814 138.4231 14.23194387641754"}}, "geometry": {"type": "Point", "coordinates": [109.16902261313349, -79.92384236153647]}}, {"type": "Feature", "properties": {"norad_id": 31550, "name": "FENGYUN 1C DEB", "group": "fengyun-1c-debris", "lat": -47.37205712521347, "lon": 170.65063722026082, "alt_km": 628.8185109794913, "timestamp": "2025-12-26T17:24:55.002494+00:00", "meta": {"OBJECT_NAME": "FENGYUN 1C DEB", "OBJECT_ID": "1999-025BYR", "EPOCH": "2025-12-25T18:40:35.078592", "MEAN_MOTION": 14.40274889, "ECCENTRICITY": 0.01901062, "INCLINATION": 98.3122, "RA_OF_ASC_NODE": 358.8691, "ARG_OF_PERICENTER": 233.3004, "MEAN_ANOMALY": 125.0588, "EPHEMERIS_TYPE": 0, "CLASSIFICATION_TYPE": "U", "NORAD_CAT_ID": 31550, "ELEMENT_SET_NO": 999, "REV_AT_EPOCH": 65642, "BSTAR": 0.00062693916, "MEAN_MOTION_DOT": 2.408e-05, "MEAN_MOTION_DDOT": 0}, "tle": {"line1": "1 31550U 99025BYR 25359.77818378  .00002408  00000+0  62694-3 0  9995", "line2": "2 31550  98.3122 358.8691 0190106 233.3004 125.0588 14.40274889656422"}}, "geometry": {"type": "Point", "coordinates": [170.65063722026082, -47.37205712521347]}}]}